APRIZESAT 2             
1 28366U 04025A   15041.77825334  .00000220  00000-0  83882-4 0  9993
2 28366  98.3232 332.0614 0109293  95.6800 265.6861 14.36381491556498
SAUDICOMSAT 1           
1 28369U 04025D   15040.90774623  .00000444  00000-0  11995-3 0  9997
2 28369  98.0754   8.5167 0034798 150.4189 209.8985 14.51946930562229
SAUDICOMSAT 2           
1 28370U 04025E   15041.18432593  .00000409  00000-0  12237-3 0  9998
2 28370  98.1931 357.0607 0057122 247.7169 111.7961 14.46949648560365
APRIZESAT 1             
1 28372U 04025G   15041.88249293  .00000271  00000-0  81703-4 0  9992
2 28372  98.1401   2.7292 0046508 197.0943 187.3747 14.49197504561390
NANOSAT-1               
1 28493U 04049B   15041.15403875  .00000712  00000-0  12002-3 0  9995
2 28493  98.3191  84.9171 0004491 193.9309 219.0919 14.72677725544610
SAUDICOMSAT 7           
1 31119U 07012C   15041.92979013  .00000619  00000-0  13213-3 0  9995
2 31119  97.8429  33.1348 0059606 242.8698 116.6417 14.61068244416758
SAUDICOMSAT 6           
1 31121U 07012E   15040.48180719  .00000739  00000-0  16497-3 0  9995
2 31121  97.8979  21.7181 0075931 294.7098 181.9171 14.57895676415661
SAUDICOMSAT 5           
1 31124U 07012H   15041.95165141  .00000617  00000-0  12775-3 0  9993
2 31124  97.8158  39.2775 0051613 219.4745 140.2693 14.62720468417201
SAUDICOMSAT 3           
1 31125U 07012J   15042.04594736  .00000691  00000-0  13765-3 0  9993
2 31125  97.7921  45.6110 0043827 196.9124 163.0621 14.64379181417670
SAUDICOMSAT 4           
1 31127U 07012L   15041.19261367  .00000633  00000-0  13865-3 0  9998
2 31127  97.8688  27.6521 0067363 267.6411  91.7076 14.59588717416227
APRIZESAT 4             
1 35684U 09041D   15040.33468131  .00001132  00000-0  16031-3 0  9990
2 35684  98.0681 326.6989 0047292 346.3934 127.5193 14.78333354298209
APRIZESAT 3             
1 35686U 09041F   15041.59327973  .00002368  00000-0  26511-3 0  9995
2 35686  98.1802 359.0415 0073255 281.4516 118.3463 14.86011908299772
AISSAT 1                
1 36797U 10035C   15041.98755152  .00002621  00000-0  31743-3 0  9996
2 36797  98.0097 138.8018 0010271 272.0967  87.9071 14.84490171248050
